{"type": "FeatureCollection", "features": [ {"type": "Feature", "properties": {"norad_id": 38552, "name": "METEOSAT-10 (MSG-3)", "group": "weather", "lat": -3.1065106689876925, "lon": 14.739395488333153, "alt_km": 35782.995252247216, "timestamp": "2025-12-21T18:54:58.135655+00:00", "meta": {"OBJECT_NAME": "METEOSAT-10 (MSG-3)", "OBJECT_ID": "2012-035B", "EPOCH": "2025-12-21T08:03:51.374592", "MEAN_MOTION": 1.00276748, "ECCENTRICITY": 7.023e-05, "INCLINATION": 4.2476, "RA_OF_ASC_NODE": 61.6997, "ARG_OF_PERICENTER": 268.1719, "MEAN_ANOMALY": 241.5558, "EPHEMERIS_TYPE": 0, "CLASSIFICATION_TYPE": "U", "NORAD_CAT_ID": 38552, "ELEMENT_SET_NO": 999, "REV_AT_EPOCH": 4907, "BSTAR": 0, "MEAN_MOTION_DOT": 1.6e-07, "MEAN_MOTION_DDOT": 0}, "tle": {"line1": "1 38552U 12035B   25355.33601128  .00000016  00000+0  00000+0 0  9993", "line2": "2 38552   4.2476  61.6997 0000702 268.1719 241.5558  1.00276748 49074"}}, "geometry": {"type": "Point", "coordinates": [14.739395488333153, -3.1065106689876925]}}, {"type": "Feature", "properties": {"norad_id": 38771, "name": "METOP-B", "group": "weather", "lat": -74.27180753443156, "lon": 78.43694481904478, "alt_km": 830.0097430968945, "timestamp": "2025-12-21T18:54:58.135666+00:00", "meta": {"OBJECT_NAME": "METOP-B", "OBJECT_ID": "2012-049A", "EPOCH": "2025-12-21T14:12:32.737248", "MEAN_MOTION": 14.21411522, "ECCENTRICITY": 0.00031909, "INCLINATION": 98.6786, "RA_OF_ASC_NODE": 45.4002, "ARG_OF_PERICENTER": 125.4076, "MEAN_ANOMALY": 234.74, "EPHEMERIS_TYPE": 0, "CLASSIFICATION_TYPE": "U", "NORAD_CAT_ID": 38771, "ELEMENT_SET_NO": 999, "REV_AT_EPOCH": 68803, "BSTAR": 7.229415e-05, "MEAN_MOTION_DOT": 1.14e-06, "MEAN_MOTION_DDOT": 0}, "tle": {"line1": "1 38771U 12049A   25355.59204557  .00000114  00000+0  72294-4 0  9992", "line2": "2 38771  98.6786  45.4002 0003190 125.4076 234.7400 14.21411522688033"}}, "geometry": {"type": "Point", "coordinates": [78.43694481904478, -74.27180753443156]}}, {"type": "Feature", "properties": {"norad_id": 39216, "name": "INSAT-3D", "group": "weather", "lat": 1.2736521045739873, "lon": 143.80554658484593, "alt_km": 35785.18704599902, "timestamp": "2025-12-21T18:54:58.135678+00:00", "meta": {"OBJECT_NAME": "INSAT-3D", "OBJECT_ID": "2013-038B", "EPOCH": "2025-12-21T13:48:51.708672", "MEAN_MOTION": 1.00276489, "ECCENTRICITY": 0.00018031, "INCLINATION": 1.4663, "RA_OF_ASC_NODE": 84.8975, "ARG_OF_PERICENTER": 152.8319, "MEAN_ANOMALY": 189.3713, "EPHEMERIS_TYPE": 0, "CLASSIFICATION_TYPE": "U", "NORAD_CAT_ID": 39216, "ELEMENT_SET_NO": 999, "REV_AT_EPOCH": 4529, "BSTAR": 0, "MEAN_MOTION_DOT": -3.17e-06, "MEAN_MOTION_DDOT": 0}, "tle": {"line1": "1 39216U 13038B   25355.57559848 -.00000317  00000+0  00000+0 0  9997", "line2": "2 39216   1.4663  84.8975 0001803 152.8319 189.3713  1.00276489 45294"}}, "geometry": {"type": "Point", "coordinates": [143.80554658484593, 1.2736521045739873]}}, {"type": "Feature", "properties": {"norad_id": 39260, "name": "FENGYUN 3C", "group": "weather", "lat": -15.717190973807412, "lon": -24.568492242847526, "alt_km": 855.2692557517421, "timestamp": "2025-12-21T18:54:58.135689+00:00", "meta": {"OBJECT_NAME": "FENGYUN 3C", "OBJECT_ID": "2013-052A", "EPOCH": "2025-12-21T13:54:09.220032", "MEAN_MOTION": 14.15698774, "ECCENTRICITY": 0.00147714, "INCLINATION": 98.4773, "RA_OF_ASC_NODE": 332.8274, "ARG_OF_PERICENTER": 170.3555, "MEAN_ANOMALY": 189.7906, "EPHEMERIS_TYPE": 0, "CLASSIFICATION_TYPE": "U", "NORAD_CAT_ID": 39260, "ELEMENT_SET_NO": 999, "REV_AT_EPOCH": 63343, "BSTAR": 5.1003671e-05, "MEAN_MOTION_DOT": 5.9e-07, "MEAN_MOTION_DDOT": 0}, "tle": {"line1": "1 39260U 13052A   25355.57927338  .00000059  00000+0  51004-4 0  9992", "line2": "2 39260  98.4773 332.8274 0014771 170.3555 189.7906 14.15698774633436"}}, "geometry": {"type": "Point", "coordinates": [-24.568492242847526, -15.717190973807412]}}, {"type": "Feature", "properties": {"norad_id": 40069, "name": "METEOR-M 2", "group": "weather", "lat": 28.90558994258709, "lon": 157.7567853022409, "alt_km": 815.8835547939789, "timestamp": "2025-12-21T18:54:58.135699+00:00", "meta": {"OBJECT_NAME": "METEOR-M 2", "OBJECT_ID": "2014-037A", "EPOCH": "2025-12-21T13:08:28.460832", "MEAN_MOTION": 14.21389759, "ECCENTRICITY": 0.00054207, "INCLINATION": 98.4905, "RA_OF_ASC_NODE": 332.7943, "ARG_OF_PERICENTER": 181.7414, "MEAN_ANOMALY": 178.3746, "EPHEMERIS_TYPE": 0, "CLASSIFICATION_TYPE": "U", "NORAD_CAT_ID": 40069, "ELEMENT_SET_NO": 999, "REV_AT_EPOCH": 59408, "BSTAR": 5.3742701e-05, "MEAN_MOTION_DOT": 7.5e-07, "MEAN_MOTION_DDOT": 0}, "tle": {"line1": "1 40069U 14037A   25355.54755163  .00000075  00000+0  53743-4 0  9997", "line2": "2 40069  98.4905 332.7943 0005420 181.7414 178.3746 14.21389759594085"}}, "geometry": {"type": "Point", "coordinates": [157.7567853022409, 28.90558994258709]}}, {"type": "Feature", "properties": {"norad_id": 40267, "name": "HIMAWARI-8", "group": "weather", "lat": 0.021114775977878888, "lon": 154.99437516137957, "alt_km": 35789.39788740056, "timestamp": "2025-12-21T18:54:58.135711+00:00", "meta": {"OBJECT_NAME": "HIMAWARI-8", "OBJECT_ID": "2014-060A", "EPOCH": "2025-12-21T12:57:31.239360", "MEAN_MOTION": 1.00270596, "ECCENTRICITY": 8.915e-05, "INCLINATION": 0.0387, "RA_OF_ASC_NODE": 133.414, "ARG_OF_PERICENTER": 163.4755, "MEAN_ANOMALY": 128.5136, "EPHEMERIS_TYPE": 0, "CLASSIFICATION_TYPE": "U", "NORAD_CAT_ID": 40267, "ELEMENT_SET_NO": 999, "REV_AT_EPOCH": 4097, "BSTAR": 0, "MEAN_MOTION_DOT": -2.53e-06, "MEAN_MOTION_DDOT": 0}, "tle": {"line1": "1 40267U 14060A   25355.53994490 -.00000253  00000+0  00000+0 0  9992", "line2": "2 40267   0.0387 133.4140 0000891 163.4755 128.5136  1.00270596 40970"}}, "geometry": {"type": "Point", "coordinates": [154.99437516137957, 0.021114775977878888]}}, {"type": "Feature", "properties": {"norad_id": 40367, "name": "FENGYUN 2G", "group": "weather", "lat": 3.2580174157151904, "lon": 113.44702626528817, "alt_km": 35799.69424056548, "timestamp": "2025-12-21T18:54:58.135723+00:00", "meta": {"OBJECT_NAME": "FENGYUN 2G", "OBJECT_ID": "2014-090A", "EPOCH": "2025-12-21T15:41:33.984384", "MEAN_MOTION": 1.00260816, "ECCENTRICITY": 0.000267, "INCLINATION": 5.1896, "RA_OF_ASC_NODE": 74.9957, "ARG_OF_PERICENTER": 203.7441, "MEAN_ANOMALY": 146.3563, "EPHEMERIS_TYPE": 0, "CLASSIFICATION_TYPE": "U", "NORAD_CAT_ID": 40367, "ELEMENT_SET_NO": 999, "REV_AT_EPOCH": 4021, "BSTAR": 0, "MEAN_MOTION_DOT": -2.79e-06, "MEAN_MOTION_DDOT": 0}, "tle": {"line1": "1 40367U 14090A   25355.65386556 -.00000279  00000+0  00000+0 0  9995", "line2": "2 40367   5.1896  74.9957 0002670 203.7441 146.3563  1.00260816 40217"}}, "geometry": {"type": "Point", "coordinates": [113.44702626528817, 3.2580174157151904]}}, {"type": "Feature", "properties": {"norad_id": 40732, "name": "METEOSAT-11 (MSG-4)", "group": "weather", "lat": -2.057006773714159, "lon": 23.566619981613925, "alt_km": 35790.18681968583, "timestamp": "2025-12-21T18:54:58.135735+00:00", "meta": {"OBJECT_NAME": "METEOSAT-11 (MSG-4)", "OBJECT_ID": "2015-034A", "EPOCH": "2025-12-21T02:58:07.934880", "MEAN_MOTION": 1.00270116, "ECCENTRICITY": 8.178e-05, "INCLINATION": 2.7571, "RA_OF_ASC_NODE": 71.9801, "ARG_OF_PERICENTER": 136.5122, "MEAN_ANOMALY": 295.1851, "EPHEMERIS_TYPE": 0, "CLASSIFICATION_TYPE": "U", "NORAD_CAT_ID": 40732, "ELEMENT_SET_NO": 999, "REV_AT_EPOCH": 543, "BSTAR": 0, "MEAN_MOTION_DOT": 8.2e-07, "MEAN_MOTION_DDOT": 0}, "tle": {"line1": "1 40732U 15034A   25355.12370295  .00000082  00000+0  00000+0 0  9996", "line2": "2 40732   2.7571  71.9801 0000817 136.5122 295.1851  1.00270116  5433"}}, "geometry": {"type": "Point", "coordinates": [23.566619981613925, -2.057006773714159]}}, {"type": "Feature", "properties": {"norad_id": 41105, "name": "ELEKTRO-L 2", "group": "weather", "lat": -5.974270412083903, "lon": 0.006864438176645333, "alt_km": 35783.64181690062, "timestamp": "2025-12-21T18:54:58.135747+00:00", "meta": {"OBJECT_NAME": "ELEKTRO-L 2", "OBJECT_ID": "2015-074A", "EPOCH": "2025-12-21T09:42:19.444608", "MEAN_MOTION": 1.00272503, "ECCENTRICITY": 0.00034923, "INCLINATION": 6.2461, "RA_OF_ASC_NODE": 72.7254, "ARG_OF_PERICENTER": 209.0939, "MEAN_ANOMALY": 299.5117, "EPHEMERIS_TYPE": 0, "CLASSIFICATION_TYPE": "U", "NORAD_CAT_ID": 41105, "ELEMENT_SET_NO": 999, "REV_AT_EPOCH": 3672, "BSTAR": 0, "MEAN_MOTION_DOT": -9.9e-07, "MEAN_MOTION_DDOT": 0}, "tle": {"line1": "1 41105U 15074A   25355.40439172 -.00000099  00000+0  00000+0 0  9995", "line2": "2 41105   6.2461  72.7254 0003492 209.0939 299.5117  1.00272503 36721"}}, "geometry": {"type": "Point", "coordinates": [0.006864438176645333, -5.974270412083903]}}, {"type": "Feature", "properties": {"norad_id": 41752, "name": "INSAT-3DR", "group": "weather", "lat": 0.02936384959206886, "lon": 88.33509655696533, "alt_km": 35846.00124117574, "timestamp": "2025-12-21T18:54:58.135759+00:00", "meta": {"OBJECT_NAME": "INSAT-3DR", "OBJECT_ID": "2016-054A", "EPOCH": "2025-12-21T13:33:00.728064", "MEAN_MOTION": 1.0027156, "ECCENTRICITY": 0.00141469, "INCLINATION": 0.113, "RA_OF_ASC_NODE": 86.2995, "ARG_OF_PERICENTER": 185.3676, "MEAN_ANOMALY": 95.9571, "EPHEMERIS_TYPE": 0, "CLASSIFICATION_TYPE": "U", "NORAD_CAT_ID": 41752, "ELEMENT_SET_NO": 999, "REV_AT_EPOCH": 3403, "BSTAR": 0, "MEAN_MOTION_DOT": -5.4e-07, "MEAN_MOTION_DDOT": 0}, "tle": {"line1": "1 41752U 16054A   25355.56459176 -.00000054  00000+0  00000+0 0  9996", "line2": "2 41752   0.1130  86.2995 0014146 185.3676  95.9571  1.00271560 34035"}}, "geometry": {"type": "Point", "coordinates": [88.33509655696533, 0.02936384959206886]}}]}